{
  "type": "FeatureCollection",
  "features": [
    {
      "type": "Feature",
      "properties": {
        "norad_id": 35646,
        "name": "COSMOS 2251 DEB",
        "group": "cosmos-2251-debris",
        "lat": -71.22642422160453,
        "lon": -66.74944224219128,
        "alt_km": 1129.1147496682534,
        "timestamp": "2025-12-13T10:41:26.162539+00:00",
        "meta_object_name": "COSMOS 2251 DEB",
        "meta_object_id": "1993-036ANM",
        "meta_epoch": "2025-12-11T14:49:41.257632",
        "meta_mean_motion": 13.40818919,
        "meta_eccentricity": 0.04570406,
        "meta_inclination": 73.8724,
        "meta_ra_of_asc_node": 57.8087,
        "meta_arg_of_pericenter": 168.1759,
        "meta_mean_anomaly": 268.2989,
        "meta_ephemeris_type": 0,
        "meta_classification_type": "U",
        "meta_norad_cat_id": 35646,
        "meta_element_set_no": 999,
        "meta_rev_at_epoch": 81843,
        "meta_bstar": 0.00139883,
        "meta_mean_motion_dot": 1.406e-05,
        "meta_mean_motion_ddot": 0,
        "tle_line1": "1 35646U 93036ANM 25345.61783863  .00001406  00000+0  13988-2 0  9997",
        "tle_line2": "2 35646  73.8724  57.8087 0457040 168.1759 268.2989 13.40818919818431"
      },
      "geometry": {
        "type": "Point",
        "coordinates": [
          -66.74944224219128,
          -71.22642422160453
        ]
      }
    },
    {
      "type": "Feature",
      "properties": {
        "norad_id": 35647,
        "name": "COSMOS 2251 DEB",
        "group": "cosmos-2251-debris",
        "lat": -53.33877456601305,
        "lon": -89.38463978690409,
        "alt_km": 752.2587462429801,
        "timestamp": "2025-12-13T10:41:26.162550+00:00",
        "meta_object_name": "COSMOS 2251 DEB",
        "meta_object_id": "1993-036ANN",
        "meta_epoch": "2025-12-12T05:00:52.197408",
        "meta_mean_motion": 14.43629477,
        "meta_eccentricity": 0.00454864,
        "meta_inclination": 74.0232,
        "meta_ra_of_asc_node": 295.5523,
        "meta_arg_of_pericenter": 34.8283,
        "meta_mean_anomaly": 325.5835,
        "meta_ephemeris_type": 0,
        "meta_classification_type": "U",
        "meta_norad_cat_id": 35647,
        "meta_element_set_no": 999,
        "meta_rev_at_epoch": 67656,
        "meta_bstar": 0.0013504797,
        "meta_mean_motion_dot": 4.615e-05,
        "meta_mean_motion_ddot": 0,
        "tle_line1": "1 35647U 93036ANN 25346.20893747  .00004615  00000+0  13505-2 0  9997",
        "tle_line2": "2 35647  74.0232 295.5523 0045486  34.8283 325.5835 14.43629477676569"
      },
      "geometry": {
        "type": "Point",
        "coordinates": [
          -89.38463978690409,
          -53.33877456601305
        ]
      }
    },
    {
      "type": "Feature",
      "properties": {
        "norad_id": 35650,
        "name": "COSMOS 2251 DEB",
        "group": "cosmos-2251-debris",
        "lat": -35.83833168789884,
        "lon": -150.5966689946901,
        "alt_km": 632.8890352647932,
        "timestamp": "2025-12-13T10:41:26.162560+00:00",
        "meta_object_name": "COSMOS 2251 DEB",
        "meta_object_id": "1993-036ANR",
        "meta_epoch": "2025-12-12T13:22:24.301344",
        "meta_mean_motion": 14.83621367,
        "meta_eccentricity": 0.00146003,
        "meta_inclination": 74.0467,
        "meta_ra_of_asc_node": 19.2377,
        "meta_arg_of_pericenter": 66.3507,
        "meta_mean_anomaly": 88.9366,
        "meta_ephemeris_type": 0,
        "meta_classification_type": "U",
        "meta_norad_cat_id": 35650,
        "meta_element_set_no": 999,
        "meta_rev_at_epoch": 87631,
        "meta_bstar": 0.0022838196,
        "meta_mean_motion_dot": 0.00018897,
        "meta_mean_motion_ddot": 0,
        "tle_line1": "1 35650U 93036ANR 25346.55722571  .00018897  00000+0  22838-2 0  9991",
        "tle_line2": "2 35650  74.0467  19.2377 0014600  66.3507  88.9366 14.83621367876312"
      },
      "geometry": {
        "type": "Point",
        "coordinates": [
          -150.5966689946901,
          -35.83833168789884
        ]
      }
    },
    {
      "type": "Feature",
      "properties": {
        "norad_id": 35660,
        "name": "COSMOS 2251 DEB",
        "group": "cosmos-2251-debris",
        "lat": 63.713525606045906,
        "lon": 167.316095802084,
        "alt_km": 730.604635210615,
        "timestamp": "2025-12-13T10:41:26.162570+00:00",
        "meta_object_name": "COSMOS 2251 DEB",
        "meta_object_id": "1993-036APB",
        "meta_epoch": "2025-12-10T03:25:35.080032",
        "meta_mean_motion": 14.49912866,
        "meta_eccentricity": 0.00186346,
        "meta_inclination": 74.0397,
        "meta_ra_of_asc_node": 138.1054,
        "meta_arg_of_pericenter": 287.2761,
        "meta_mean_anomaly": 189.4863,
        "meta_ephemeris_type": 0,
        "meta_classification_type": "U",
        "meta_norad_cat_id": 35660,
        "meta_element_set_no": 999,
        "meta_rev_at_epoch": 65833,
        "meta_bstar": 0.00068790313,
        "meta_mean_motion_dot": 2.638e-05,
        "meta_mean_motion_ddot": 0,
        "tle_line1": "1 35660U 93036APB 25344.14276713  .00002638  00000+0  68790-3 0  9991",
        "tle_line2": "2 35660  74.0397 138.1054 0018634 287.2761 189.4863 14.49912866658333"
      },
      "geometry": {
        "type": "Point",
        "coordinates": [
          167.316095802084,
          63.713525606045906
        ]
      }
    },
    {
      "type": "Feature",
      "properties": {
        "norad_id": 35661,
        "name": "COSMOS 2251 DEB",
        "group": "cosmos-2251-debris",
        "lat": 20.62847083952632,
        "lon": -107.8721143854792,
        "alt_km": 552.0170647301093,
        "timestamp": "2025-12-13T10:41:26.162580+00:00",
        "meta_object_name": "COSMOS 2251 DEB",
        "meta_object_id": "1993-036APC",
        "meta_epoch": "2025-12-12T16:12:43.128288",
        "meta_mean_motion": 14.86567571,
        "meta_eccentricity": 0.00879386,
        "meta_inclination": 74.0131,
        "meta_ra_of_asc_node": 79.8575,
        "meta_arg_of_pericenter": 184.0785,
        "meta_mean_anomaly": 175.969,
        "meta_ephemeris_type": 0,
        "meta_classification_type": "U",
        "meta_norad_cat_id": 35661,
        "meta_element_set_no": 999,
        "meta_rev_at_epoch": 87867,
        "meta_bstar": 0.0013893232,
        "meta_mean_motion_dot": 0.000132,
        "meta_mean_motion_ddot": 0,
        "tle_line1": "1 35661U 93036APC 25346.67549917  .00013200  00000+0  13893-2 0  9991",
        "tle_line2": "2 35661  74.0131  79.8575 0087938 184.0785 175.9690 14.86567571878671"
      },
      "geometry": {
        "type": "Point",
        "coordinates": [
          -107.8721143854792,
          20.62847083952632
        ]
      }
    },
    {
      "type": "Feature",
      "properties": {
        "norad_id": 35663,
        "name": "COSMOS 2251 DEB",
        "group": "cosmos-2251-debris",
        "lat": -8.316130491801037,
        "lon": 120.90471401549372,
        "alt_km": 682.6070934610634,
        "timestamp": "2025-12-13T10:41:26.162590+00:00",
        "meta_object_name": "COSMOS 2251 DEB",
        "meta_object_id": "1993-036APE",
        "meta_epoch": "2025-12-11T16:08:16.742400",
        "meta_mean_motion": 14.65641013,
        "meta_eccentricity": 0.0006473,
        "meta_inclination": 74.0174,
        "meta_ra_of_asc_node": 126.7221,
        "meta_arg_of_pericenter": 201.4165,
        "meta_mean_anomaly": 158.6734,
        "meta_ephemeris_type": 0,
        "meta_classification_type": "U",
        "meta_norad_cat_id": 35663,
        "meta_element_set_no": 999,
        "meta_rev_at_epoch": 73366,
        "meta_bstar": 0.0028072836,
        "meta_mean_motion_dot": 0.0001527,
        "meta_mean_motion_ddot": 0,
        "tle_line1": "1 35663U 93036APE 25345.67241600  .00015270  00000+0  28073-2 0  9995",
        "tle_line2": "2 35663  74.0174 126.7221 0006473 201.4165 158.6734 14.65641013733668"
      },
      "geometry": {
        "type": "Point",
        "coordinates": [
          120.90471401549372,
          -8.316130491801037
        ]
      }
    },
    {
      "type": "Feature",
      "properties": {
        "norad_id": 35667,
        "name": "COSMOS 2251 DEB",
        "group": "cosmos-2251-debris",
        "lat": 24.219914842302813,
        "lon": 146.15154746838903,
        "alt_km": 706.0273368495564,
        "timestamp": "2025-12-13T10:41:26.162599+00:00",
        "meta_object_name": "COSMOS 2251 DEB",
        "meta_object_id": "1993-036APJ",
        "meta_epoch": "2025-12-12T16:29:07.800576",
        "meta_mean_motion": 14.60019536,
        "meta_eccentricity": 0.00197659,
        "meta_inclination": 74.055,
        "meta_ra_of_asc_node": 140.2077,
        "meta_arg_of_pericenter": 201.2373,
        "meta_mean_anomaly": 158.7974,
        "meta_ephemeris_type": 0,
        "meta_classification_type": "U",
        "meta_norad_cat_id": 35667,
        "meta_element_set_no": 999,
        "meta_rev_at_epoch": 70802,
        "meta_bstar": 0.0016940169,
        "meta_mean_motion_dot": 8.135e-05,
        "meta_mean_motion_ddot": 0,
        "tle_line1": "1 35667U 93036APJ 25346.68689584  .00008135  00000+0  16940-2 0  9990",
        "tle_line2": "2 35667  74.0550 140.2077 0019765 201.2373 158.7974 14.60019536708020"
      },
      "geometry": {
        "type": "Point",
        "coordinates": [
          146.15154746838903,
          24.219914842302813
        ]
      }
    }
  ]
}